{"type": "FeatureCollection", "features": [ {"type": "Feature", "properties": {"norad_id": 35602, "name": "COSMOS 2251 DEB", "group": "cosmos-2251-debris", "lat": 62.558988253847176, "lon": -167.33459079407032, "alt_km": 507.87268424551985, "timestamp": "2025-12-23T11:34:48.556708+00:00", "meta": {"OBJECT_NAME": "COSMOS 2251 DEB", "OBJECT_ID": "1993-036AMV", "EPOCH": "2025-12-21T22:26:51.012096", "MEAN_MOTION": 15.35414257, "ECCENTRICITY": 0.0088735, "INCLINATION": 73.9929, "RA_OF_ASC_NODE": 162.4295, "ARG_OF_PERICENTER": 226.1697, "MEAN_ANOMALY": 293.1785, "EPHEMERIS_TYPE": 0, "CLASSIFICATION_TYPE": "U", "NORAD_CAT_ID": 35602, "ELEMENT_SET_NO": 999, "REV_AT_EPOCH": 90232, "BSTAR": 0.00057035, "MEAN_MOTION_DOT": 0.00022374, "MEAN_MOTION_DDOT": 0}, "tle": {"line1": "1 35602U 93036AMV 25355.93531264  .00022374  00000+0  57035-3 0  9990", "line2": "2 35602  73.9929 162.4295 0088735 226.1697 293.1785 15.35414257902328"}}, "geometry": {"type": "Point", "coordinates": [-167.33459079407032, 62.558988253847176]}}, {"type": "Feature", "properties": {"norad_id": 35605, "name": "COSMOS 2251 DEB", "group": "cosmos-2251-debris", "lat": 22.791713486279157, "lon": 126.31079008521833, "alt_km": 446.2112063055911, "timestamp": "2025-12-23T11:34:48.556717+00:00", "meta": {"OBJECT_NAME": "COSMOS 2251 DEB", "OBJECT_ID": "1993-036AMY", "EPOCH": "2025-12-22T14:36:44.008416", "MEAN_MOTION": 15.38179315, "ECCENTRICITY": 0.00228045, "INCLINATION": 73.869, "RA_OF_ASC_NODE": 315.1978, "ARG_OF_PERICENTER": 235.9327, "MEAN_ANOMALY": 123.9715, "EPHEMERIS_TYPE": 0, "CLASSIFICATION_TYPE": "U", "NORAD_CAT_ID": 35605, "ELEMENT_SET_NO": 999, "REV_AT_EPOCH": 66123, "BSTAR": 0.0066900453, "MEAN_MOTION_DOT": 0.00262511, "MEAN_MOTION_DDOT": 0}, "tle": {"line1": "1 35605U 93036AMY 25356.60884269  .00262511  00000+0  66900-2 0  9993", "line2": "2 35605  73.8690 315.1978 0022804 235.9327 123.9715 15.38179315661234"}}, "geometry": {"type": "Point", "coordinates": [126.31079008521833, 22.791713486279157]}}, {"type": "Feature", "properties": {"norad_id": 35606, "name": "COSMOS 2251 DEB", "group": "cosmos-2251-debris", "lat": -34.26785589188499, "lon": -174.91009081537575, "alt_km": 783.945139417855, "timestamp": "2025-12-23T11:34:48.556726+00:00", "meta": {"OBJECT_NAME": "COSMOS 2251 DEB", "OBJECT_ID": "1993-036AMZ", "EPOCH": "2025-12-22T16:36:21.551904", "MEAN_MOTION": 13.41219032, "ECCENTRICITY": 0.04568187, "INCLINATION": 73.8097, "RA_OF_ASC_NODE": 354.9331, "ARG_OF_PERICENTER": 199.1781, "MEAN_ANOMALY": 159.163, "EPHEMERIS_TYPE": 0, "CLASSIFICATION_TYPE": "U", "NORAD_CAT_ID": 35606, "ELEMENT_SET_NO": 999, "REV_AT_EPOCH": 61173, "BSTAR": 0.00021075659, "MEAN_MOTION_DOT": 1.94e-06, "MEAN_MOTION_DDOT": 0}, "tle": {"line1": "1 35606U 93036AMZ 25356.69191611  .00000194  00000+0  21076-3 0  9998", "line2": "2 35606  73.8097 354.9331 0456818 199.1781 159.1630 13.41219032611731"}}, "geometry": {"type": "Point", "coordinates": [-174.91009081537575, -34.26785589188499]}}, {"type": "Feature", "properties": {"norad_id": 35611, "name": "COSMOS 2251 DEB", "group": "cosmos-2251-debris", "lat": 28.636175650754712, "lon": 167.359309793294, "alt_km": 663.6216391510416, "timestamp": "2025-12-23T11:34:48.556735+00:00", "meta": {"OBJECT_NAME": "COSMOS 2251 DEB", "OBJECT_ID": "1993-036ANE", "EPOCH": "2025-12-19T11:16:40.848672", "MEAN_MOTION": 14.73020971, "ECCENTRICITY": 0.0021353, "INCLINATION": 74.0189, "RA_OF_ASC_NODE": 166.1787, "ARG_OF_PERICENTER": 238.9125, "MEAN_ANOMALY": 120.9952, "EPHEMERIS_TYPE": 0, "CLASSIFICATION_TYPE": "U", "NORAD_CAT_ID": 35611, "ELEMENT_SET_NO": 999, "REV_AT_EPOCH": 87389, "BSTAR": 0.0015718, "MEAN_MOTION_DOT": 0.0001012, "MEAN_MOTION_DDOT": 0}, "tle": {"line1": "1 35611U 93036ANE 25353.46991723  .00010120  00000+0  15718-2 0  9993", "line2": "2 35611  74.0189 166.1787 0021353 238.9125 120.9952 14.73020971873894"}}, "geometry": {"type": "Point", "coordinates": [167.359309793294, 28.636175650754712]}}, {"type": "Feature", "properties": {"norad_id": 35614, "name": "COSMOS 2251 DEB", "group": "cosmos-2251-debris", "lat": -70.42204658884489, "lon": -107.36217242044896, "alt_km": 705.8543933554593, "timestamp": "2025-12-23T11:34:48.556745+00:00", "meta": {"OBJECT_NAME": "COSMOS 2251 DEB", "OBJECT_ID": "1993-036ANH", "EPOCH": "2025-12-22T04:50:52.701504", "MEAN_MOTION": 14.67087782, "ECCENTRICITY": 0.00751415, "INCLINATION": 73.9595, "RA_OF_ASC_NODE": 309.1128, "ARG_OF_PERICENTER": 161.1452, "MEAN_ANOMALY": 199.2529, "EPHEMERIS_TYPE": 0, "CLASSIFICATION_TYPE": "U", "NORAD_CAT_ID": 35614, "ELEMENT_SET_NO": 999, "REV_AT_EPOCH": 87868, "BSTAR": 0.00075496675, "MEAN_MOTION_DOT": 4.392e-05, "MEAN_MOTION_DDOT": 0}, "tle": {"line1": "1 35614U 93036ANH 25356.20199886  .00004392  00000+0  75497-3 0  9996", "line2": "2 35614  73.9595 309.1128 0075141 161.1452 199.2529 14.67087782878685"}}, "geometry": {"type": "Point", "coordinates": [-107.36217242044896, -70.42204658884489]}}, {"type": "Feature", "properties": {"norad_id": 35645, "name": "COSMOS 2251 DEB", "group": "cosmos-2251-debris", "lat": -67.42808435630877, "lon": -68.61134950452272, "alt_km": 703.4440628060665, "timestamp": "2025-12-23T11:34:48.556754+00:00", "meta": {"OBJECT_NAME": "COSMOS 2251 DEB", "OBJECT_ID": "1993-036ANL", "EPOCH": "2025-12-21T21:52:19.623072", "MEAN_MOTION": 14.45702684, "ECCENTRICITY": 0.0069742, "INCLINATION": 73.9649, "RA_OF_ASC_NODE": 70.5529, "ARG_OF_PERICENTER": 227.2337, "MEAN_ANOMALY": 132.2942, "EPHEMERIS_TYPE": 0, "CLASSIFICATION_TYPE": "U", "NORAD_CAT_ID": 35645, "ELEMENT_SET_NO": 999, "REV_AT_EPOCH": 86904, "BSTAR": 0.0018299, "MEAN_MOTION_DOT": 6.654e-05, "MEAN_MOTION_DDOT": 0}, "tle": {"line1": "1 35645U 93036ANL 25355.91133823  .00006654  00000+0  18299-2 0  9995", "line2": "2 35645  73.9649  70.5529 0069742 227.2337 132.2942 14.45702684869046"}}, "geometry": {"type": "Point", "coordinates": [-68.61134950452272, -67.42808435630877]}}, {"type": "Feature", "properties": {"norad_id": 35646, "name": "COSMOS 2251 DEB", "group": "cosmos-2251-debris", "lat": 71.78876081521119, "lon": 100.56136191882435, "alt_km": 946.7545913029544, "timestamp": "2025-12-23T11:34:48.556764+00:00", "meta": {"OBJECT_NAME": "COSMOS 2251 DEB", "OBJECT_ID": "1993-036ANM", "EPOCH": "2025-12-22T19:39:20.278080", "MEAN_MOTION": 13.40833248, "ECCENTRICITY": 0.04560319, "INCLINATION": 73.8715, "RA_OF_ASC_NODE": 40.0356, "ARG_OF_PERICENTER": 148.5212, "MEAN_ANOMALY": 335.9889, "EPHEMERIS_TYPE": 0, "CLASSIFICATION_TYPE": "U", "NORAD_CAT_ID": 35646, "ELEMENT_SET_NO": 999, "REV_AT_EPOCH": 81993, "BSTAR": 0.00038990225, "MEAN_MOTION_DOT": 3.77e-06, "MEAN_MOTION_DDOT": 0}, "tle": {"line1": "1 35646U 93036ANM 25356.81898470  .00000377  00000+0  38990-3 0  9999", "line2": "2 35646  73.8715  40.0356 0456031 148.5212 335.9889 13.40833248819938"}}, "geometry": {"type": "Point", "coordinates": [100.56136191882435, 71.78876081521119]}}, {"type": "Feature", "properties": {"norad_id": 35647, "name": "COSMOS 2251 DEB", "group": "cosmos-2251-debris", "lat": -62.243527661037135, "lon": 127.56324601559542, "alt_km": 771.4966915401437, "timestamp": "2025-12-23T11:34:48.556773+00:00", "meta": {"OBJECT_NAME": "COSMOS 2251 DEB", "OBJECT_ID": "1993-036ANN", "EPOCH": "2025-12-20T12:35:18.566880", "MEAN_MOTION": 14.43670529, "ECCENTRICITY": 0.0045979, "INCLINATION": 74.0241, "RA_OF_ASC_NODE": 280.0829, "ARG_OF_PERICENTER": 17.3675, "MEAN_ANOMALY": 342.9041, "EPHEMERIS_TYPE": 0, "CLASSIFICATION_TYPE": "U", "NORAD_CAT_ID": 35647, "ELEMENT_SET_NO": 999, "REV_AT_EPOCH": 67776, "BSTAR": 0.00050731, "MEAN_MOTION_DOT": 1.718e-05, "MEAN_MOTION_DDOT": 0}, "tle": {"line1": "1 35647U 93036ANN 25354.52452045  .00001718  00000+0  50731-3 0  9997", "line2": "2 35647  74.0241 280.0829 0045979  17.3675 342.9041 14.43670529677764"}}, "geometry": {"type": "Point", "coordinates": [127.56324601559542, -62.243527661037135]}}, {"type": "Feature", "properties": {"norad_id": 35650, "name": "COSMOS 2251 DEB", "group": "cosmos-2251-debris", "lat": 11.007011465755316, "lon": 174.41464469277847, "alt_km": 624.7152447127528, "timestamp": "2025-12-23T11:34:48.556782+00:00", "meta": {"OBJECT_NAME": "COSMOS 2251 DEB", "OBJECT_ID": "1993-036ANR", "EPOCH": "2025-12-21T00:43:00.521760", "MEAN_MOTION": 14.83815616, "ECCENTRICITY": 0.00149589, "INCLINATION": 74.045, "RA_OF_ASC_NODE": 2.46, "ARG_OF_PERICENTER": 46.0258, "MEAN_ANOMALY": 346.2318, "EPHEMERIS_TYPE": 0, "CLASSIFICATION_TYPE": "U", "NORAD_CAT_ID": 35650, "ELEMENT_SET_NO": 999, "REV_AT_EPOCH": 87757, "BSTAR": 0.0010844283, "MEAN_MOTION_DOT": 8.984e-05, "MEAN_MOTION_DDOT": 0}, "tle": {"line1": "1 35650U 93036ANR 25355.02986715  .00008984  00000+0  10844-2 0  9995", "line2": "2 35650  74.0450   2.4600 0014958  46.0258 346.2318 14.83815616877579"}}, "geometry": {"type": "Point", "coordinates": [174.41464469277847, 11.007011465755316]}}, {"type": "Feature", "properties": {"norad_id": 35660, "name": "COSMOS 2251 DEB", "group": "cosmos-2251-debris", "lat": -55.532396133407296, "lon": -42.299832764172045, "alt_km": 718.6433957977024, "timestamp": "2025-12-23T11:34:48.556791+00:00", "meta": {"OBJECT_NAME": "COSMOS 2251 DEB", "OBJECT_ID": "1993-036APB", "EPOCH": "2025-12-22T02:10:51.745152", "MEAN_MOTION": 14.49959651, "ECCENTRICITY": 0.002078, "INCLINATION": 74.0442, "RA_OF_ASC_NODE": 115.6794, "ARG_OF_PERICENTER": 262.6258, "MEAN_ANOMALY": 275.2762, "EPHEMERIS_TYPE": 0, "CLASSIFICATION_TYPE": "U", "NORAD_CAT_ID": 35660, "ELEMENT_SET_NO": 999, "REV_AT_EPOCH": 66006, "BSTAR": 0.00046816232, "MEAN_MOTION_DOT": 1.789e-05, "MEAN_MOTION_DDOT": 0}, "tle": {"line1": "1 35660U 93036APB 25356.09087668  .00001789  00000+0  46816-3 0  9998", "line2": "2 35660  74.0442 115.6794 0020780 262.6258 275.2762 14.49959651660066"}}, "geometry": {"type": "Point", "coordinates": [-42.299832764172045, -55.532396133407296]}}]}